SL-16 R/B               
1 23405U 94077B   26202.39261642  .00000242  00000+0  14832-3 0  9994
2 23405  70.9822  71.2007 0004175 298.7223  61.3480 14.15575970635157
ARIANE 40+ R/B          
1 23561U 95021B   26202.44328963  .00000152  00000+0  62121-4 0  9998
2 23561  98.4395 272.0207 0007947 100.7842 269.9857 14.39849851638494
SL-16 R/B               
1 23705U 95058B   26202.33536045  .00000263  00000+0  15871-3 0  9990
2 23705  71.0204 259.6638 0014723 274.9627  84.9815 14.15512407586763
SL-16 R/B               
1 24298U 96051B   26202.30790807  .00000146  00000+0  10560-3 0  9997
2 24298  70.7640 252.4413 0018205 290.1956  69.7205 14.12458996540513
ORBVIEW 2 (SEASTAR)     
1 24883U 97037A   26202.45118086  .00000141  00000+0  65203-4 0  9991
2 24883  98.8721  10.4256 0002838  48.0302 312.1124 14.35568770527664
SL-16 R/B               
1 25400U 98043G   26202.32147080  .00000025  00000+0  29521-4 0  9991
2 25400  98.8382 156.7780 0009722 353.8516   6.2542 14.26073421458035
SL-16 R/B               
1 25407U 98045B   26202.56324837  .00000158  00000+0  10408-3 0  9993
2 25407  71.0099 260.0365 0007840 197.3223 162.7634 14.16205621446050
ISS (ZARYA)             
1 25544U 98067A   26202.18553447  .00005896  00000+0  11479-3 0  9991
2 25544  51.6316 131.8443 0006849 320.6461  39.4029 15.49071756577020
CZ-4B R/B               
1 25732U 99025C   26202.14325553  .00000003  00000+0  22272-4 0  9995
2 25732  98.6468 243.1243 0036348 322.3003 105.6709 14.18288347407081
OKEAN-O                 
1 25860U 99039A   26202.61390708  .00000373  00000+0  55496-4 0  9992
2 25860  97.9295 261.0133 0000899 100.7668 259.3646 14.80502168454209
SL-16 R/B               
1 25861U 99039B   26202.40119602  .00000327  00000+0  48047-4 0  9995
2 25861  97.9818 261.1632 0014823 178.0936 182.0336 14.81874860456666
DELTA 2 R/B             
1 25876U 99041E   26202.22105192  .00001087  00000+0  21355-3 0  9999
2 25876  51.7615 127.8174 0501487  22.5450 339.6701 14.12101209381897
HELIOS 1B               
1 25977U 99064A   26202.33808867  .00000930  00000+0  10751-3 0  9991
2 25977  98.1576 108.4620 0001671  47.4676 312.6681 14.88085674705132
TERRA                   
1 25994U 99068A   26202.61954139  .00000241  00000+0  58077-4 0  9998
2 25994  97.9436 250.7972 0003622 110.2563  49.2698 14.61127057414632
SL-16 R/B               
1 26070U 00006B   26202.33071556  .00000267  00000+0  15997-3 0  9991
2 26070  71.0009 176.8319 0017462 331.4665  28.5500 14.15839448367471
TITAN 4B R/B            
1 26474U 00047B   26202.56421690  .00001951  00000+0  12423-3 0  9999
2 26474  67.9874  23.7949 0045697 252.3606 107.2551 15.10355258413122
ENVISAT                 
1 27386U 02009A   26202.61839823  .00000058  00000+0  32691-4 0  9996
2 27386  98.3849 153.1723 0001303  82.1555  90.8051 14.39071765278434
IDEFIX & ARIANE 42P R/B 
1 27422U 02021B   26202.31891093  .00000132  00000+0  66602-4 0  9997
2 27422  98.5941 139.4332 0012267 148.9136 211.2775 14.31095618263138
AQUA                    
1 27424U 02022A   26202.61098541  .00000537  00000+0  11669-3 0  9991
2 27424  98.4301 172.5868 0001325 102.0917 312.0397 14.62134884288301
CZ-4B R/B               
1 27432U 02024C   26202.63441090  .00000012  00000+0  28886-4 0  9993
2 27432  98.8680 255.2273 0050135   3.7374 149.4519 14.14568968248170
MIDORI II (ADEOS-II)    
1 27597U 02056A   26202.29863481  .00000150  00000+0  76850-4 0  9991
2 27597  98.7898 161.8524 0001221  32.9921 327.1336 14.29365051229385
H-2A R/B                
1 27601U 02056E   26202.36442113  .00000183  00000+0  78291-4 0  9997
2 27601  98.3331 157.7967 0071185 122.7705  36.7727 14.33836230233264
CZ-4B R/B               
1 28059U 03049C   26202.40672391  .00000201  00000+0  57611-4 0  9990
2 28059  98.6914 202.6183 0048016 182.2160 177.8831 14.55118782206043
CZ-2C R/B               
1 28222U 04012C   26202.17622880  .00133854  00000+0  52442-3 0  9992
2 28222  97.7025 281.9888 0010812 173.3746 186.7669 15.86532822225278
SL-16 R/B               
1 28353U 04021B   26202.31512272 -.00000185  00000+0 -71433-4 0  9990
2 28353  71.0028 312.0657 0006100 219.5312 140.5366 14.14615815141732
CZ-4B R/B               
1 28415U 04035C   26202.51471697  .00006410  00000+0  21344-3 0  9991
2 28415  97.3356 235.2088 0029778 209.3412 150.6158 15.31048522200376
CZ-2C R/B               
1 28480U 04046B   26202.33845586  .00000086  00000+0  46642-4 0  9999
2 28480  98.1908 108.9788 0140417 119.3274 242.2021 14.27034651127561
ARIANE 5 R/B            
1 28499U 04049H   26202.48341254  .00000414  00000+0  52393-4 0  9996
2 28499  98.2747  16.0679 0082501 277.5780  81.6069 14.85483944165655
CZ-2D R/B               
1 28738U 05024B   26202.03173305  .00052764  00000+0  38252-3 0  9999
2 28738  97.3471 223.2442 0003418 176.5935 183.5353 15.73272151160652
ALOS (DAICHI)           
1 28931U 06002A   26202.32682023  .00000766  00000+0  13562-3 0  9997
2 28931  98.1341 157.7928 0000959 108.6534 251.4776 14.70110322 93117
