OBJECT_NAME,OBJECT_ID,EPOCH,MEAN_MOTION,ECCENTRICITY,INCLINATION,RA_OF_ASC_NODE,ARG_OF_PERICENTER,MEAN_ANOMALY,EPHEMERIS_TYPE,CLASSIFICATION_TYPE,NORAD_CAT_ID,ELEMENT_SET_NO,REV_AT_EPOCH,BSTAR,MEAN_MOTION_DOT,MEAN_MOTION_DDOT
SL-16 R/B,1994-077B,2026-07-21T09:25:22.058688,14.15575970,.00041758,70.9822,71.2007,298.7223,61.3480,0,U,23405,999,63515,.14832308E-3,.242E-5,0
ARIANE 40+ R/B,1995-021B,2026-07-21T10:38:20.224032,14.39849851,.00079479,98.4395,272.0207,100.7842,269.9857,0,U,23561,999,63849,.62120929E-4,.152E-5,0
SL-16 R/B,1995-058B,2026-07-21T08:02:55.142880,14.15512407,.00147233,71.0204,259.6638,274.9627,84.9815,0,U,23705,999,58676,.15870719E-3,.263E-5,0
SL-16 R/B,1996-051B,2026-07-21T07:23:23.257248,14.12458996,.00182058,70.7640,252.4413,290.1956,69.7205,0,U,24298,999,54051,.10560396E-3,.146E-5,0
ORBVIEW 2 (SEASTAR),1997-037A,2026-07-21T10:49:42.026304,14.35568770,.00028383,98.8721,10.4256,48.0302,312.1124,0,U,24883,999,52766,.65203416E-4,.141E-5,0
SL-16 R/B,1998-043G,2026-07-21T07:42:55.077120,14.26073421,.00097221,98.8382,156.7780,353.8516,6.2542,0,U,25400,999,45803,.29520565E-4,.25E-6,0
SL-16 R/B,1998-045B,2026-07-21T13:31:04.659168,14.16205621,.00078409,71.0099,260.0365,197.3223,162.7634,0,U,25407,999,44605,.10408321E-3,.158E-5,0
ISS (ZARYA),1998-067A,2026-07-21T04:27:10.178208,15.49071756,.00068493,51.6316,131.8443,320.6461,39.4029,0,U,25544,999,57702,.11479289E-3,.5896E-4,0
CZ-4B R/B,1999-025C,2026-07-21T03:26:17.277792,14.18288347,.00363482,98.6468,243.1243,322.3003,105.6709,0,U,25732,999,40708,.2227205E-4,.3E-7,0
OKEAN-O,1999-039A,2026-07-21T14:44:01.571712,14.80502168,.0000899,97.9295,261.0133,100.7668,259.3646,0,U,25860,999,45420,.55495645E-4,.373E-5,0
SL-16 R/B,1999-039B,2026-07-21T09:37:43.336128,14.81874860,.00148239,97.9818,261.1632,178.0936,182.0336,0,U,25861,999,45666,.48046971E-4,.327E-5,0
DELTA 2 R/B,1999-041E,2026-07-21T05:18:18.885888,14.12101209,.05014878,51.7615,127.8174,22.5450,339.6701,0,U,25876,999,38189,.21354825E-3,.1087E-4,0
HELIOS 1B,1999-064A,2026-07-21T08:06:50.861088,14.88085674,.00016719,98.1576,108.4620,47.4676,312.6681,0,U,25977,999,70513,.10751118E-3,.93E-5,0
TERRA,1999-068A,2026-07-21T14:52:08.376096,14.61127057,.00036222,97.9436,250.7972,110.2563,49.2698,0,U,25994,999,41463,.58077171E-4,.241E-5,0
SL-16 R/B,2000-006B,2026-07-21T07:56:13.824384,14.15839448,.00174624,71.0009,176.8319,331.4665,28.5500,0,U,26070,999,36747,.15997047E-3,.267E-5,0
TITAN 4B R/B,2000-047B,2026-07-21T13:32:28.340160,15.10355258,.00456973,67.9874,23.7949,252.3606,107.2551,0,U,26474,999,41312,.12422899E-3,.1951E-4,0
ENVISAT,2002-009A,2026-07-21T14:50:29.607072,14.39071765,.00013031,98.3849,153.1723,82.1555,90.8051,0,U,27386,999,27843,.32690914E-4,.58E-6,0
IDEFIX & ARIANE 42P R/B,2002-021B,2026-07-21T07:39:13.904352,14.31095618,.0012267,98.5941,139.4332,148.9136,211.2775,0,U,27422,999,26313,.66602174E-4,.132E-5,0
AQUA,2002-022A,2026-07-21T14:39:49.139424,14.62134884,.00013252,98.4301,172.5868,102.0917,312.0397,0,U,27424,999,28830,.11668767E-3,.537E-5,0
CZ-4B R/B,2002-024C,2026-07-21T15:13:33.101760,14.14568968,.00501358,98.8680,255.2273,3.7374,149.4519,0,U,27432,999,24817,.28886457E-4,.12E-6,0
MIDORI II (ADEOS-II),2002-056A,2026-07-21T07:10:02.047584,14.29365051,.00012218,98.7898,161.8524,32.9921,327.1336,0,U,27597,999,22938,.7684993E-4,.15E-5,0
H-2A R/B,2002-056E,2026-07-21T08:44:45.985632,14.33836230,.00711854,98.3331,157.7967,122.7705,36.7727,0,U,27601,999,23326,.78290707E-4,.183E-5,0
CZ-4B R/B,2003-049C,2026-07-21T09:45:40.945824,14.55118782,.00480166,98.6914,202.6183,182.2160,177.8831,0,U,28059,999,20604,.57611372E-4,.201E-5,0
CZ-2C R/B,2004-012C,2026-07-21T04:13:46.168320,15.86532822,.00108122,97.7025,281.9888,173.3746,186.7669,0,U,28222,999,22527,.52441855E-3,.133854E-2,0
SL-16 R/B,2004-021B,2026-07-21T07:33:46.603008,14.14615815,.00061,71.0028,312.0657,219.5312,140.5366,0,U,28353,999,14173,-.71433217E-4,-.185E-5,0
CZ-4B R/B,2004-035C,2026-07-21T12:21:11.546208,15.31048522,.00297783,97.3356,235.2088,209.3412,150.6158,0,U,28415,999,20037,.21343819E-3,.641E-4,0
CZ-2C R/B,2004-046B,2026-07-21T08:07:22.586304,14.27034651,.01404179,98.1908,108.9788,119.3274,242.2021,0,U,28480,999,12756,.4664175E-4,.86E-6,0
ARIANE 5 R/B,2004-049H,2026-07-21T11:36:06.843456,14.85483944,.0082501,98.2747,16.0679,277.5780,81.6069,0,U,28499,999,16565,.52392952E-4,.414E-5,0
CZ-2D R/B,2005-024B,2026-07-21T00:45:41.735520,15.73272151,.00034185,97.3471,223.2442,176.5935,183.5353,0,U,28738,999,16065,.38252136E-3,.52764E-3,0
ALOS (DAICHI),2006-002A,2026-07-21T07:50:37.267872,14.70110322,.00009597,98.1341,157.7928,108.6534,251.4776,0,U,28931,999,9311,.13562222E-3,.766E-5,0
